CCSDS_OMM_VERS = 2.0
CREATION_DATE  = 
ORIGINATOR     = 

OBJECT_NAME    = ATLAS CENTAUR 2
OBJECT_ID      = 1963-047A
CENTER_NAME    = EARTH
REF_FRAME      = TEME
TIME_SYSTEM    = UTC
MEAN_ELEMENT_THEORY = SGP/SGP4

EPOCH          = 2025-12-03T19:30:38.842848
MEAN_MOTION    = 14.11679488
ECCENTRICITY   = .05493016
INCLINATION    = 30.3586
RA_OF_ASC_NODE = 11.3172
ARG_OF_PERICENTER = 315.5347
MEAN_ANOMALY   = 40.2395

EPHEMERIS_TYPE = 0
CLASSIFICATION_TYPE = U
NORAD_CAT_ID   = 694
ELEMENT_SET_NO = 999
REV_AT_EPOCH   = 11806
BSTAR          = .68696338E-3
MEAN_MOTION_DOT = .5689E-4
MEAN_MOTION_DDOT = 0

CCSDS_OMM_VERS = 2.0
CREATION_DATE  = 
ORIGINATOR     = 

OBJECT_NAME    = THOR AGENA D R/B
OBJECT_ID      = 1964-002A
CENTER_NAME    = EARTH
REF_FRAME      = TEME
TIME_SYSTEM    = UTC
MEAN_ELEMENT_THEORY = SGP/SGP4

EPOCH          = 2025-12-03T22:19:56.362080
MEAN_MOTION    = 14.33951714
ECCENTRICITY   = .00329583
INCLINATION    = 99.1218
RA_OF_ASC_NODE = 341.0729
ARG_OF_PERICENTER = 175.6536
MEAN_ANOMALY   = 184.4939

EPHEMERIS_TYPE = 0
CLASSIFICATION_TYPE = U
NORAD_CAT_ID   = 733
ELEMENT_SET_NO = 999
REV_AT_EPOCH   = 22457
BSTAR          = .18904363E-3
MEAN_MOTION_DOT = .482E-5
MEAN_MOTION_DDOT = 0

CCSDS_OMM_VERS = 2.0
CREATION_DATE  = 
ORIGINATOR     = 

OBJECT_NAME    = SL-3 R/B
OBJECT_ID      = 1964-053B
CENTER_NAME    = EARTH
REF_FRAME      = TEME
TIME_SYSTEM    = UTC
MEAN_ELEMENT_THEORY = SGP/SGP4

EPOCH          = 2025-12-03T22:46:43.637088
MEAN_MOTION    = 14.61262820
ECCENTRICITY   = .00730921
INCLINATION    = 65.0770
RA_OF_ASC_NODE = 251.9003
ARG_OF_PERICENTER = 323.2759
MEAN_ANOMALY   = 36.3344

EPHEMERIS_TYPE = 0
CLASSIFICATION_TYPE = U
NORAD_CAT_ID   = 877
ELEMENT_SET_NO = 999
REV_AT_EPOCH   = 25280
BSTAR          = .19430146E-3
MEAN_MOTION_DOT = .873E-5
MEAN_MOTION_DDOT = 0

CCSDS_OMM_VERS = 2.0
CREATION_DATE  = 
ORIGINATOR     = 

OBJECT_NAME    = SL-8 R/B
OBJECT_ID      = 1967-045B
CENTER_NAME    = EARTH
REF_FRAME      = TEME
TIME_SYSTEM    = UTC
MEAN_ELEMENT_THEORY = SGP/SGP4

EPOCH          = 2025-12-03T22:25:18.456960
MEAN_MOTION    = 14.45524233
ECCENTRICITY   = .00647318
INCLINATION    = 74.0093
RA_OF_ASC_NODE = 166.9049
ARG_OF_PERICENTER = 198.2630
MEAN_ANOMALY   = 161.6204

EPHEMERIS_TYPE = 0
CLASSIFICATION_TYPE = U
NORAD_CAT_ID   = 2802
ELEMENT_SET_NO = 999
REV_AT_EPOCH   = 7518
BSTAR          = .18247079E-3
MEAN_MOTION_DOT = .632E-5
MEAN_MOTION_DDOT = 0

CCSDS_OMM_VERS = 2.0
CREATION_DATE  = 
ORIGINATOR     = 

OBJECT_NAME    = SL-8 R/B
OBJECT_ID      = 1968-040B
CENTER_NAME    = EARTH
REF_FRAME      = TEME
TIME_SYSTEM    = UTC
MEAN_ELEMENT_THEORY = SGP/SGP4

EPOCH          = 2025-12-03T22:01:30.234720
MEAN_MOTION    = 15.02429261
ECCENTRICITY   = .00248749
INCLINATION    = 74.0295
RA_OF_ASC_NODE = 149.2634
ARG_OF_PERICENTER = 352.7054
MEAN_ANOMALY   = 7.3768

EPHEMERIS_TYPE = 0
CLASSIFICATION_TYPE = U
NORAD_CAT_ID   = 3230
ELEMENT_SET_NO = 999
REV_AT_EPOCH   = 7562
BSTAR          = .45436041E-3
MEAN_MOTION_DOT = .6026E-4
MEAN_MOTION_DDOT = 0

CCSDS_OMM_VERS = 2.0
CREATION_DATE  = 
ORIGINATOR     = 

OBJECT_NAME    = OAO 2
OBJECT_ID      = 1968-110A
CENTER_NAME    = EARTH
REF_FRAME      = TEME
TIME_SYSTEM    = UTC
MEAN_ELEMENT_THEORY = SGP/SGP4

EPOCH          = 2025-12-03T09:43:23.797920
MEAN_MOTION    = 14.47233951
ECCENTRICITY   = .0005136
INCLINATION    = 34.9933
RA_OF_ASC_NODE = 82.7699
ARG_OF_PERICENTER = 150.6631
MEAN_ANOMALY   = 209.4349

EPHEMERIS_TYPE = 0
CLASSIFICATION_TYPE = U
NORAD_CAT_ID   = 3597
ELEMENT_SET_NO = 999
REV_AT_EPOCH   = 514
BSTAR          = .12897361E-3
MEAN_MOTION_DOT = .459E-5
MEAN_MOTION_DDOT = 0

CCSDS_OMM_VERS = 2.0
CREATION_DATE  = 
ORIGINATOR     = 

OBJECT_NAME    = ISIS 1
OBJECT_ID      = 1969-009A
CENTER_NAME    = EARTH
REF_FRAME      = TEME
TIME_SYSTEM    = UTC
MEAN_ELEMENT_THEORY = SGP/SGP4

EPOCH          = 2025-12-03T12:01:09.365376
MEAN_MOTION    = 11.30348282
ECCENTRICITY   = .17068846
INCLINATION    = 88.4488
RA_OF_ASC_NODE = 165.8070
ARG_OF_PERICENTER = 283.3721
MEAN_ANOMALY   = 58.3296

EPHEMERIS_TYPE = 0
CLASSIFICATION_TYPE = U
NORAD_CAT_ID   = 3669
ELEMENT_SET_NO = 999
REV_AT_EPOCH   = 33766
BSTAR          = .21590605E-3
MEAN_MOTION_DOT = .296E-5
MEAN_MOTION_DDOT = 0

CCSDS_OMM_VERS = 2.0
CREATION_DATE  = 
ORIGINATOR     = 

OBJECT_NAME    = SL-8 R/B
OBJECT_ID      = 1971-119B
CENTER_NAME    = EARTH
REF_FRAME      = TEME
TIME_SYSTEM    = UTC
MEAN_ELEMENT_THEORY = SGP/SGP4

EPOCH          = 2025-12-03T18:24:59.130720
MEAN_MOTION    = 14.35420671
ECCENTRICITY   = .0560214
INCLINATION    = 73.8883
RA_OF_ASC_NODE = 354.7104
ARG_OF_PERICENTER = 340.7820
MEAN_ANOMALY   = 17.2919

EPHEMERIS_TYPE = 0
CLASSIFICATION_TYPE = U
NORAD_CAT_ID   = 5730
ELEMENT_SET_NO = 999
REV_AT_EPOCH   = 64171
BSTAR          = .72700204E-3
MEAN_MOTION_DOT = .1388E-3
MEAN_MOTION_DDOT = 0

CCSDS_OMM_VERS = 2.0
CREATION_DATE  = 
ORIGINATOR     = 

OBJECT_NAME    = OAO 3 (COPERNICUS)
OBJECT_ID      = 1972-065A
CENTER_NAME    = EARTH
REF_FRAME      = TEME
TIME_SYSTEM    = UTC
MEAN_ELEMENT_THEORY = SGP/SGP4

EPOCH          = 2025-12-03T17:01:34.622400
MEAN_MOTION    = 14.59892810
ECCENTRICITY   = .00059344
INCLINATION    = 35.0043
RA_OF_ASC_NODE = 124.1070
ARG_OF_PERICENTER = 95.0419
MEAN_ANOMALY   = 282.0365

EPHEMERIS_TYPE = 0
CLASSIFICATION_TYPE = U
NORAD_CAT_ID   = 6153
ELEMENT_SET_NO = 999
REV_AT_EPOCH   = 83216
BSTAR          = .1355922E-3
MEAN_MOTION_DOT = .638E-5
MEAN_MOTION_DDOT = 0

