ATLAS CENTAUR 2         
1 00694U 63047A   25337.81294957  .00005689  00000+0  68696-3 0  9999
2 00694  30.3586  11.3172 0549301 315.5347  40.2395 14.11679488118069
THOR AGENA D R/B        
1 00733U 64002A   25337.93051345  .00000482  00000+0  18904-3 0  9993
2 00733  99.1218 341.0729 0032958 175.6536 184.4939 14.33951714224577
SL-3 R/B                
1 00877U 64053B   25337.94911617  .00000873  00000+0  19430-3 0  9995
2 00877  65.0770 251.9003 0073092 323.2759  36.3344 14.61262820252803
SL-8 R/B                
1 02802U 67045B   25337.93424139  .00000632  00000+0  18247-3 0  9994
2 02802  74.0093 166.9049 0064732 198.2630 161.6204 14.45524233 75187
SL-8 R/B                
1 03230U 68040B   25337.91771105  .00006026  00000+0  45436-3 0  9995
2 03230  74.0295 149.2634 0024874 352.7054   7.3768 15.02429261 75620
OAO 2                   
1 03597U 68110A   25337.40513655  .00000459  00000+0  12897-3 0  9996
2 03597  34.9933  82.7699 0005136 150.6631 209.4349 14.47233951  5145
ISIS 1                  
1 03669U 69009A   25337.50080284  .00000296  00000+0  21591-3 0  9992
2 03669  88.4488 165.8070 1706884 283.3721  58.3296 11.30348282337663
SL-8 R/B                
1 05730U 71119B   25337.76735105  .00013880  00000+0  72700-3 0  9996
2 05730  73.8883 354.7104 0560214 340.7820  17.2919 14.35420671641711
OAO 3 (COPERNICUS)      
1 06153U 72065A   25337.70942850  .00000638  00000+0  13559-3 0  9992
2 06153  35.0043 124.1070 0005934  95.0419 282.0365 14.59892810832169
